COSMOS 2251 DEB         
1 34386U 93036QB  17345.93357368  .00001203  00000-0  31535-3 0  9995
2 34386  74.0276 171.0412 0014512 234.4262 247.9623 14.50302143462552
